TOMORROW-S1             
1 60479U 24149M   26068.72470524  .00008620  00000+0  28856-3 0  9996
2 60479  97.3791 149.6044 0001819 207.2040 152.9106 15.31198362 86867
STARLINK-35647          
1 66388U 25257J   26068.73058549  .00024570  00000+0  83883-3 0  9995
2 66388  53.1609 216.5566 0000930  90.4044 269.7064 15.30203663 19734
